{
  "type": "FeatureCollection",
  "features": [
    {
      "type": "Feature",
      "properties": {
        "norad_id": 38250,
        "name": "BEIDOU-2 M3 (C11)",
        "group": "beidou",
        "lat": -46.73549278753931,
        "lon": 176.958922119611,
        "alt_km": 21476.46991971162,
        "timestamp": "2025-12-16T23:36:36.461479+00:00",
        "meta_object_name": "BEIDOU-2 M3 (C11)",
        "meta_object_id": "2012-018A",
        "meta_epoch": "2025-12-13T22:30:51.861600",
        "meta_mean_motion": 1.86229879,
        "meta_eccentricity": 0.00242907,
        "meta_inclination": 55.9188,
        "meta_ra_of_asc_node": 311.1166,
        "meta_arg_of_pericenter": 274.3199,
        "meta_mean_anomaly": 85.3911,
        "meta_ephemeris_type": 0,
        "meta_classification_type": "U",
        "meta_norad_cat_id": 38250,
        "meta_element_set_no": 999,
        "meta_rev_at_epoch": 9249,
        "meta_bstar": 0,
        "meta_mean_motion_dot": -9.6e-07,
        "meta_mean_motion_ddot": 0,
        "tle_line1": "1 38250U 12018A   25347.93810025 -.00000096  00000+0  00000+0 0  9993",
        "tle_line2": "2 38250  55.9188 311.1166 0024290 274.3199  85.3911  1.86229879 92490"
      },
      "geometry": {
        "type": "Point",
        "coordinates": [
          176.958922119611,
          -46.73549278753931
        ]
      }
    },
    {
      "type": "Feature",
      "properties": {
        "norad_id": 38251,
        "name": "BEIDOU-2 M4 (C12)",
        "group": "beidou",
        "lat": -52.145057278179,
        "lon": -110.68412495902919,
        "alt_km": 21491.360668230816,
        "timestamp": "2025-12-16T23:36:36.461490+00:00",
        "meta_object_name": "BEIDOU-2 M4 (C12)",
        "meta_object_id": "2012-018B",
        "meta_epoch": "2025-12-13T07:59:48.422112",
        "meta_mean_motion": 1.86229462,
        "meta_eccentricity": 0.00154528,
        "meta_inclination": 55.8208,
        "meta_ra_of_asc_node": 310.3658,
        "meta_arg_of_pericenter": 277.4494,
        "meta_mean_anomaly": 82.3644,
        "meta_ephemeris_type": 0,
        "meta_classification_type": "U",
        "meta_norad_cat_id": 38251,
        "meta_element_set_no": 999,
        "meta_rev_at_epoch": 9248,
        "meta_bstar": 0,
        "meta_mean_motion_dot": -9.5e-07,
        "meta_mean_motion_ddot": 0,
        "tle_line1": "1 38251U 12018B   25347.33319933 -.00000095  00000+0  00000+0 0  9999",
        "tle_line2": "2 38251  55.8208 310.3658 0015452 277.4494  82.3644  1.86229462 92489"
      },
      "geometry": {
        "type": "Point",
        "coordinates": [
          -110.68412495902919,
          -52.145057278179
        ]
      }
    },
    {
      "type": "Feature",
      "properties": {
        "norad_id": 38775,
        "name": "BEIDOU-2 M6 (C14)",
        "group": "beidou",
        "lat": 45.30382093851141,
        "lon": -153.23404517709372,
        "alt_km": 21546.03727782384,
        "timestamp": "2025-12-16T23:36:36.461502+00:00",
        "meta_object_name": "BEIDOU-2 M6 (C14)",
        "meta_object_id": "2012-050B",
        "meta_epoch": "2025-12-16T06:22:47.654112",
        "meta_mean_motion": 1.86230757,
        "meta_eccentricity": 0.00113185,
        "meta_inclination": 56.3814,
        "meta_ra_of_asc_node": 68.9504,
        "meta_arg_of_pericenter": 343.5807,
        "meta_mean_anomaly": 16.4038,
        "meta_ephemeris_type": 0,
        "meta_classification_type": "U",
        "meta_norad_cat_id": 38775,
        "meta_element_set_no": 999,
        "meta_rev_at_epoch": 8990,
        "meta_bstar": 0,
        "meta_mean_motion_dot": -8e-07,
        "meta_mean_motion_ddot": 0,
        "tle_line1": "1 38775U 12050B   25350.26582933 -.00000080  00000+0  00000+0 0  9998",
        "tle_line2": "2 38775  56.3814  68.9504 0011318 343.5807  16.4038  1.86230757 89902"
      },
      "geometry": {
        "type": "Point",
        "coordinates": [
          -153.23404517709372,
          45.30382093851141
        ]
      }
    },
    {
      "type": "Feature",
      "properties": {
        "norad_id": 38953,
        "name": "BEIDOU-2 G6 (C02)",
        "group": "beidou",
        "lat": 3.960643569644157,
        "lon": 164.0233800731728,
        "alt_km": 35817.28895106593,
        "timestamp": "2025-12-16T23:36:36.461514+00:00",
        "meta_object_name": "BEIDOU-2 G6 (C02)",
        "meta_object_id": "2012-059A",
        "meta_epoch": "2025-12-15T20:38:09.573792",
        "meta_mean_motion": 1.00269594,
        "meta_eccentricity": 0.00080079,
        "meta_inclination": 3.9573,
        "meta_ra_of_asc_node": 75.4759,
        "meta_arg_of_pericenter": 290.8885,
        "meta_mean_anomaly": 111.922,
        "meta_ephemeris_type": 0,
        "meta_classification_type": "U",
        "meta_norad_cat_id": 38953,
        "meta_element_set_no": 999,
        "meta_rev_at_epoch": 4807,
        "meta_bstar": 0,
        "meta_mean_motion_dot": -1.55e-06,
        "meta_mean_motion_ddot": 0,
        "tle_line1": "1 38953U 12059A   25349.85983303 -.00000155  00000+0  00000+0 0  9997",
        "tle_line2": "2 38953   3.9573  75.4759 0008007 290.8885 111.9220  1.00269594 48070"
      },
      "geometry": {
        "type": "Point",
        "coordinates": [
          164.0233800731728,
          3.960643569644157
        ]
      }
    },
    {
      "type": "Feature",
      "properties": {
        "norad_id": 40549,
        "name": "BEIDOU-3S IGSO-1S (C31)",
        "group": "beidou",
        "lat": -39.667328318818214,
        "lon": 162.57619922600955,
        "alt_km": 35673.181624589924,
        "timestamp": "2025-12-16T23:36:36.461526+00:00",
        "meta_object_name": "BEIDOU-3S IGSO-1S (C31)",
        "meta_object_id": "2015-019A",
        "meta_epoch": "2025-12-12T20:25:38.580672",
        "meta_mean_motion": 1.0029302,
        "meta_eccentricity": 0.0036523,
        "meta_inclination": 49.5511,
        "meta_ra_of_asc_node": 297.7097,
        "meta_arg_of_pericenter": 193.9643,
        "meta_mean_anomaly": 350.5618,
        "meta_ephemeris_type": 0,
        "meta_classification_type": "U",
        "meta_norad_cat_id": 40549,
        "meta_element_set_no": 999,
        "meta_rev_at_epoch": 3920,
        "meta_bstar": 0,
        "meta_mean_motion_dot": -1.94e-06,
        "meta_mean_motion_ddot": 0,
        "tle_line1": "1 40549U 15019A   25346.85114098 -.00000194  00000+0  00000+0 0  9997",
        "tle_line2": "2 40549  49.5511 297.7097 0036523 193.9643 350.5618  1.00293020 39203"
      },
      "geometry": {
        "type": "Point",
        "coordinates": [
          162.57619922600955,
          -39.667328318818214
        ]
      }
    },
    {
      "type": "Feature",
      "properties": {
        "norad_id": 40748,
        "name": "BEIDOU-3S M2S (C58)",
        "group": "beidou",
        "lat": 24.356821586942303,
        "lon": 109.84032389049916,
        "alt_km": 21541.603820812343,
        "timestamp": "2025-12-16T23:36:36.461539+00:00",
        "meta_object_name": "BEIDOU-3S M2S (C58)",
        "meta_object_id": "2015-037A",
        "meta_epoch": "2025-12-11T22:15:26.437248",
        "meta_mean_motion": 1.8622897,
        "meta_eccentricity": 0.00123447,
        "meta_inclination": 55.0397,
        "meta_ra_of_asc_node": 308.4912,
        "meta_arg_of_pericenter": 267.8245,
        "meta_mean_anomaly": 92.025,
        "meta_ephemeris_type": 0,
        "meta_classification_type": "U",
        "meta_norad_cat_id": 40748,
        "meta_element_set_no": 999,
        "meta_rev_at_epoch": 7063,
        "meta_bstar": 0,
        "meta_mean_motion_dot": -8.9e-07,
        "meta_mean_motion_ddot": 0,
        "tle_line1": "1 40748U 15037A   25345.92738932 -.00000089  00000+0  00000+0 0  9997",
        "tle_line2": "2 40748  55.0397 308.4912 0012344 267.8245  92.0250  1.86228970 70636"
      },
      "geometry": {
        "type": "Point",
        "coordinates": [
          109.84032389049916,
          24.356821586942303
        ]
      }
    },
    {
      "type": "Feature",
      "properties": {
        "norad_id": 40749,
        "name": "BEIDOU-3S M1S (C57)",
        "group": "beidou",
        "lat": -3.2292068050558527,
        "lon": -53.97654202704387,
        "alt_km": 21516.872408828473,
        "timestamp": "2025-12-16T23:36:36.461550+00:00",
        "meta_object_name": "BEIDOU-3S M1S (C57)",
        "meta_object_id": "2015-037B",
        "meta_epoch": "2025-12-11T14:53:54.000096",
        "meta_mean_motion": 1.86253918,
        "meta_eccentricity": 0.00034406,
        "meta_inclination": 55.0364,
        "meta_ra_of_asc_node": 308.4915,
        "meta_arg_of_pericenter": 358.1692,
        "meta_mean_anomaly": 1.8205,
        "meta_ephemeris_type": 0,
        "meta_classification_type": "U",
        "meta_norad_cat_id": 40749,
        "meta_element_set_no": 999,
        "meta_rev_at_epoch": 7063,
        "meta_bstar": 0,
        "meta_mean_motion_dot": -8.8e-07,
        "meta_mean_motion_ddot": 0,
        "tle_line1": "1 40749U 15037B   25345.62076389 -.00000088  00000+0  00000+0 0  9995",
        "tle_line2": "2 40749  55.0364 308.4915 0003440 358.1692   1.8205  1.86253918 70639"
      },
      "geometry": {
        "type": "Point",
        "coordinates": [
          -53.97654202704387,
          -3.2292068050558527
        ]
      }
    }
  ]
}